APRIZESAT 2             
1 28366U 04025A   20115.66969410  .00000025  00000-0  21779-4 0  9993
2 28366  98.2714   8.8566 0107878 167.9033 192.4783 14.36701087829270
SAUDICOMSAT 1           
1 28369U 04025D   20115.84415395  .00000048  00000-0  22838-4 0  9996
2 28369  98.3340  66.9498 0034699  58.5483 301.9097 14.52545601838082
SAUDICOMSAT 2           
1 28370U 04025E   20115.83211943  .00000045  00000-0  24481-4 0  9993
2 28370  98.4279  63.7672 0057017 217.7403 141.9784 14.47477743835284
APRIZESAT 1             
1 28372U 04025G   20115.80052694  .00000026  00000-0  18400-4 0  9991
2 28372  98.3876  64.9596 0047121 142.1551 218.2971 14.49623075836613
NANOSAT-1               
1 28493U 04049B   20115.83759649  .00000071  00000-0  18720-4 0  9993
2 28493  98.1173 205.5281 0003135 278.3761  81.7091 14.73568988824454
SAUDICOMSAT 7           
1 31119U 07012C   20115.78504364  .00000054  00000-0  20133-4 0  9993
2 31119  98.0923  62.7901 0060758  27.5277 332.9121 14.61779901694217
SAUDICOMSAT 6           
1 31121U 07012E   20115.79757290  .00000051  00000-0  20494-4 0  9992
2 31121  98.1454  57.5566 0077814 112.0338 248.9150 14.58579252692778
SAUDICOMSAT 5           
1 31124U 07012H   20115.80801659  .00000054  00000-0  19673-4 0  9996
2 31124  98.0569  65.4549 0051282 343.2776  16.6733 14.63482307694961
SAUDICOMSAT 3           
1 31125U 07012J   20115.86085989  .00000080  00000-0  23667-4 0  9990
2 31125  98.0189  68.2738 0042071 298.5934  61.1040 14.65239541695751
SAUDICOMSAT 4           
1 31127U 07012L   20115.81483245  .00000047  00000-0  19235-4 0  9993
2 31127  98.1195  60.6334 0069327  67.3868 293.4647 14.60293710693507
APRIZESAT 4             
1 35684U 09041D   20115.80256240  .00000048  00000-0  14100-4 0  9998
2 35684  98.2707  93.0314 0046860 346.8707  13.1280 14.79267348579254
APRIZESAT 3             
1 35686U 09041F   20115.71432708  .00000065  00000-0  13749-4 0  9992
2 35686  98.1882 170.9943 0071993 222.6302 136.9313 14.87378693582091
AISSAT 1                
1 36797U 10035C   20115.67881878  .00000133  00000-0  21733-4 0  9990
2 36797  98.1644 263.0450 0010840 191.9341 168.1618 14.86295409530138
S-NET D                 
1 43186U 18014G   20115.83416242  .00000673  00000-0  63758-4 0  9994
2 43186  97.6977  24.5351 0012431  50.2286 310.0028 14.96789491121672
S-NET B                 
1 43187U 18014H   20115.83398155  .00000672  00000-0  63749-4 0  9996
2 43187  97.6975  24.5149 0012426  50.1607 310.0706 14.96789350121673
S-NET A                 
1 43188U 18014J   20115.70014133  .00000690  00000-0  65254-4 0  9997
2 43188  97.6977  24.4108 0012419  50.6141 309.6178 14.96788831121658
S-NET C                 
1 43189U 18014K   20115.83424301  .00000665  00000-0  63131-4 0  9998
2 43189  97.6974  24.5109 0012416  50.1834 310.0478 14.96788621120227
